[{"OBJECT_NAME":"STARLINK-30091","OBJECT_ID":"2023-107G","EPOCH":"2026-03-09T02:58:36.288768","MEAN_MOTION":15.27580258,"ECCENTRICITY":0.00020649,"INCLINATION":42.9976,"RA_OF_ASC_NODE":339.0335,"ARG_OF_PERICENTER":272.7411,"MEAN_ANOMALY":87.3204,"EPHEMERIS_TYPE":0,"CLASSIFICATION_TYPE":"U","NORAD_CAT_ID":57463,"ELEMENT_SET_NO":999,"REV_AT_EPOCH":14506,"BSTAR":0.00012695736,"MEAN_MOTION_DOT":3.233e-5,"MEAN_MOTION_DDOT":0},{"OBJECT_NAME":"PUCP-SAT 1","OBJECT_ID":"2013-066AC","EPOCH":"2026-03-09T22:02:13.763904","MEAN_MOTION":15.29426022,"ECCENTRICITY":0.00136836,"INCLINATION":97.5787,"RA_OF_ASC_NODE":61.0032,"ARG_OF_PERICENTER":300.1183,"MEAN_ANOMALY":59.87,"EPHEMERIS_TYPE":0,"CLASSIFICATION_TYPE":"U","NORAD_CAT_ID":39442,"ELEMENT_SET_NO":999,"REV_AT_EPOCH":66907,"BSTAR":0.00088755185,"MEAN_MOTION_DOT":0.00025373,"MEAN_MOTION_DDOT":0}]
